STARLINK-35873          
1 67860U 26034L   26062.50001156  .00169479  00000+0  84875-3 0  9996
2 67860  53.1587 242.2880 0000861  73.3797 123.8407 15.80788205  3007
STARLINK-36325          
1 67861U 26034M   26062.50001156  .00075369  00000+0  38256-3 0  9993
2 67861  53.1587 242.2790 0001326  90.7761 110.7064 15.80844459  2860
STARLINK-36332          
1 67862U 26034N   26062.50001156  .00106253  00000+0  53630-3 0  9994
2 67862  53.1586 242.2705 0001107 106.4602  99.2866 15.80830923  2864
STARLINK-36835          
1 67863U 26034P   26062.50001156  .00064833  00000+0  32979-3 0  9995
2 67863  53.1590 242.2605 0001112  62.5546 147.4592 15.80856816  2865
STARLINK-36831          
1 67864U 26034Q   26062.50001156  .00019534  00000+0  10225-3 0  9994
2 67864  53.1586 242.2521 0001116  77.2733 137.0079 15.80881265  2864
STARLINK-36738          
1 67865U 26034R   26062.50001156  .00019037  00000+0  99792-4 0  9990
2 67865  53.1587 242.2428 0001337  49.6896 168.8794 15.80870399  2862
STARLINK-36780          
1 67866U 26034S   26062.50001156  .00131234  00000+0  66034-3 0  9997
2 67866  53.1577 242.2327 0000695  77.0814 145.7644 15.80808286  2865
STARLINK-36761          
1 67867U 26034T   26062.50001156 -.00047991  00000+0 -24036-3 0  9992
2 67867  53.1573 242.2240 0001172  87.7674 139.3187 15.80925471  2866
STARLINK-36762          
1 67868U 26034U   26062.50001156  .00035154  00000+0  18108-3 0  9992
2 67868  53.1576 242.2156 0001555  57.2586 174.1430 15.80852964  2869
STARLINK-36779          
1 67869U 26034V   26062.50001156  .00063157  00000+0  32147-3 0  9996
2 67869  53.1577 242.2060 0001201  91.3840 144.2620 15.80853514  2866
STARLINK-36770          
1 67870U 26034W   26062.50001156  .00073820  00000+0  37439-3 0  9995
2 67870  53.1574 242.1883 0001114  87.7255 156.4566 15.80871123  2869
STARLINK-36769          
1 67871U 26034X   26062.50001156 -.00071188  00000+0 -35888-3 0  9999
2 67871  53.1575 242.1972 0000806  79.9961 159.8791 15.80946793  2867
STARLINK-36786          
1 67872U 26034Y   26062.50001156  .00038154  00000+0  19613-3 0  9992
2 67872  53.1576 242.1799 0000435 108.2679 140.2153 15.80857661  2867
STARLINK-36783          
1 67873U 26034Z   26062.50001156  .00097461  00000+0  49264-3 0  9994
2 67873  53.1577 242.1703 0000877  76.1782 176.5630 15.80834445  2869
STARLINK-36730          
1 67874U 26034AA  26062.50001156  .00051250  00000+0  26201-3 0  9997
2 67874  53.1579 242.1618 0001032  70.3727 186.6626 15.80843691  2866
STARLINK-36727          
1 67875U 26034AB  26062.50001156  .00113721  00000+0  57358-3 0  9997
2 67875  53.1568 242.1526 0000725  83.7978 177.4953 15.80818544  2867
