[{"OBJECT_NAME":"STARLINK-35873","OBJECT_ID":"2026-034L","EPOCH":"2026-03-03T12:00:00.998784","MEAN_MOTION":15.80788205,"ECCENTRICITY":8.61e-5,"INCLINATION":53.1587,"RA_OF_ASC_NODE":242.288,"ARG_OF_PERICENTER":73.3797,"MEAN_ANOMALY":123.8407,"EPHEMERIS_TYPE":0,"CLASSIFICATION_TYPE":"U","NORAD_CAT_ID":67860,"ELEMENT_SET_NO":999,"REV_AT_EPOCH":300,"BSTAR":0.00084875,"MEAN_MOTION_DOT":0.00169479,"MEAN_MOTION_DDOT":0},{"OBJECT_NAME":"STARLINK-36325","OBJECT_ID":"2026-034M","EPOCH":"2026-03-03T12:00:00.998784","MEAN_MOTION":15.80844459,"ECCENTRICITY":0.0001326,"INCLINATION":53.1587,"RA_OF_ASC_NODE":242.279,"ARG_OF_PERICENTER":90.7761,"MEAN_ANOMALY":110.7064,"EPHEMERIS_TYPE":0,"CLASSIFICATION_TYPE":"U","NORAD_CAT_ID":67861,"ELEMENT_SET_NO":999,"REV_AT_EPOCH":286,"BSTAR":0.00038256,"MEAN_MOTION_DOT":0.00075369,"MEAN_MOTION_DDOT":0},{"OBJECT_NAME":"STARLINK-36332","OBJECT_ID":"2026-034N","EPOCH":"2026-03-03T12:00:00.998784","MEAN_MOTION":15.80830923,"ECCENTRICITY":0.0001107,"INCLINATION":53.1586,"RA_OF_ASC_NODE":242.2705,"ARG_OF_PERICENTER":106.4602,"MEAN_ANOMALY":99.2866,"EPHEMERIS_TYPE":0,"CLASSIFICATION_TYPE":"U","NORAD_CAT_ID":67862,"ELEMENT_SET_NO":999,"REV_AT_EPOCH":286,"BSTAR":0.0005363,"MEAN_MOTION_DOT":0.00106253,"MEAN_MOTION_DDOT":0},{"OBJECT_NAME":"STARLINK-36835","OBJECT_ID":"2026-034P","EPOCH":"2026-03-03T12:00:00.998784","MEAN_MOTION":15.80856816,"ECCENTRICITY":0.0001112,"INCLINATION":53.159,"RA_OF_ASC_NODE":242.2605,"ARG_OF_PERICENTER":62.5546,"MEAN_ANOMALY":147.4592,"EPHEMERIS_TYPE":0,"CLASSIFICATION_TYPE":"U","NORAD_CAT_ID":67863,"ELEMENT_SET_NO":999,"REV_AT_EPOCH":286,"BSTAR":0.00032979,"MEAN_MOTION_DOT":0.00064833,"MEAN_MOTION_DDOT":0},{"OBJECT_NAME":"STARLINK-36831","OBJECT_ID":"2026-034Q","EPOCH":"2026-03-03T12:00:00.998784","MEAN_MOTION":15.80881265,"ECCENTRICITY":0.0001116,"INCLINATION":53.1586,"RA_OF_ASC_NODE":242.2521,"ARG_OF_PERICENTER":77.2733,"MEAN_ANOMALY":137.0079,"EPHEMERIS_TYPE":0,"CLASSIFICATION_TYPE":"U","NORAD_CAT_ID":67864,"ELEMENT_SET_NO":999,"REV_AT_EPOCH":286,"BSTAR":0.00010225,"MEAN_MOTION_DOT":0.00019534,"MEAN_MOTION_DDOT":0},{"OBJECT_NAME":"STARLINK-36738","OBJECT_ID":"2026-034R","EPOCH":"2026-03-03T12:00:00.998784","MEAN_MOTION":15.80870399,"ECCENTRICITY":0.0001337,"INCLINATION":53.1587,"RA_OF_ASC_NODE":242.2428,"ARG_OF_PERICENTER":49.6896,"MEAN_ANOMALY":168.8794,"EPHEMERIS_TYPE":0,"CLASSIFICATION_TYPE":"U","NORAD_CAT_ID":67865,"ELEMENT_SET_NO":999,"REV_AT_EPOCH":286,"BSTAR":9.9792e-5,"MEAN_MOTION_DOT":0.00019037,"MEAN_MOTION_DDOT":0},{"OBJECT_NAME":"STARLINK-36780","OBJECT_ID":"2026-034S","EPOCH":"2026-03-03T12:00:00.998784","MEAN_MOTION":15.80808286,"ECCENTRICITY":6.95e-5,"INCLINATION":53.1577,"RA_OF_ASC_NODE":242.2327,"ARG_OF_PERICENTER":77.0814,"MEAN_ANOMALY":145.7644,"EPHEMERIS_TYPE":0,"CLASSIFICATION_TYPE":"U","NORAD_CAT_ID":67866,"ELEMENT_SET_NO":999,"REV_AT_EPOCH":286,"BSTAR":0.00066034,"MEAN_MOTION_DOT":0.00131234,"MEAN_MOTION_DDOT":0},{"OBJECT_NAME":"STARLINK-36761","OBJECT_ID":"2026-034T","EPOCH":"2026-03-03T12:00:00.998784","MEAN_MOTION":15.80925471,"ECCENTRICITY":0.0001172,"INCLINATION":53.1573,"RA_OF_ASC_NODE":242.224,"ARG_OF_PERICENTER":87.7674,"MEAN_ANOMALY":139.3187,"EPHEMERIS_TYPE":0,"CLASSIFICATION_TYPE":"U","NORAD_CAT_ID":67867,"ELEMENT_SET_NO":999,"REV_AT_EPOCH":286,"BSTAR":-0.00024036,"MEAN_MOTION_DOT":-0.00047991,"MEAN_MOTION_DDOT":0},{"OBJECT_NAME":"STARLINK-36762","OBJECT_ID":"2026-034U","EPOCH":"2026-03-03T12:00:00.998784","MEAN_MOTION":15.80852964,"ECCENTRICITY":0.0001555,"INCLINATION":53.1576,"RA_OF_ASC_NODE":242.2156,"ARG_OF_PERICENTER":57.2586,"MEAN_ANOMALY":174.143,"EPHEMERIS_TYPE":0,"CLASSIFICATION_TYPE":"U","NORAD_CAT_ID":67868,"ELEMENT_SET_NO":999,"REV_AT_EPOCH":286,"BSTAR":0.00018108,"MEAN_MOTION_DOT":0.00035154,"MEAN_MOTION_DDOT":0},{"OBJECT_NAME":"STARLINK-36779","OBJECT_ID":"2026-034V","EPOCH":"2026-03-03T12:00:00.998784","MEAN_MOTION":15.80853514,"ECCENTRICITY":0.0001201,"INCLINATION":53.1577,"RA_OF_ASC_NODE":242.206,"ARG_OF_PERICENTER":91.384,"MEAN_ANOMALY":144.262,"EPHEMERIS_TYPE":0,"CLASSIFICATION_TYPE":"U","NORAD_CAT_ID":67869,"ELEMENT_SET_NO":999,"REV_AT_EPOCH":286,"BSTAR":0.00032147,"MEAN_MOTION_DOT":0.00063157,"MEAN_MOTION_DDOT":0},{"OBJECT_NAME":"STARLINK-36770","OBJECT_ID":"2026-034W","EPOCH":"2026-03-03T12:00:00.998784","MEAN_MOTION":15.80871123,"ECCENTRICITY":0.0001114,"INCLINATION":53.1574,"RA_OF_ASC_NODE":242.1883,"ARG_OF_PERICENTER":87.7255,"MEAN_ANOMALY":156.4566,"EPHEMERIS_TYPE":0,"CLASSIFICATION_TYPE":"U","NORAD_CAT_ID":67870,"ELEMENT_SET_NO":999,"REV_AT_EPOCH":286,"BSTAR":0.00037439,"MEAN_MOTION_DOT":0.0007382,"MEAN_MOTION_DDOT":0},{"OBJECT_NAME":"STARLINK-36769","OBJECT_ID":"2026-034X","EPOCH":"2026-03-03T12:00:00.998784","MEAN_MOTION":15.80946793,"ECCENTRICITY":8.06e-5,"INCLINATION":53.1575,"RA_OF_ASC_NODE":242.1972,"ARG_OF_PERICENTER":79.9961,"MEAN_ANOMALY":159.8791,"EPHEMERIS_TYPE":0,"CLASSIFICATION_TYPE":"U","NORAD_CAT_ID":67871,"ELEMENT_SET_NO":999,"REV_AT_EPOCH":286,"BSTAR":-0.00035888,"MEAN_MOTION_DOT":-0.00071188,"MEAN_MOTION_DDOT":0},{"OBJECT_NAME":"STARLINK-36786","OBJECT_ID":"2026-034Y","EPOCH":"2026-03-03T12:00:00.998784","MEAN_MOTION":15.80857661,"ECCENTRICITY":4.35e-5,"INCLINATION":53.1576,"RA_OF_ASC_NODE":242.1799,"ARG_OF_PERICENTER":108.2679,"MEAN_ANOMALY":140.2153,"EPHEMERIS_TYPE":0,"CLASSIFICATION_TYPE":"U","NORAD_CAT_ID":67872,"ELEMENT_SET_NO":999,"REV_AT_EPOCH":286,"BSTAR":0.00019613,"MEAN_MOTION_DOT":0.00038154,"MEAN_MOTION_DDOT":0},{"OBJECT_NAME":"STARLINK-36783","OBJECT_ID":"2026-034Z","EPOCH":"2026-03-03T12:00:00.998784","MEAN_MOTION":15.80834445,"ECCENTRICITY":8.77e-5,"INCLINATION":53.1577,"RA_OF_ASC_NODE":242.1703,"ARG_OF_PERICENTER":76.1782,"MEAN_ANOMALY":176.563,"EPHEMERIS_TYPE":0,"CLASSIFICATION_TYPE":"U","NORAD_CAT_ID":67873,"ELEMENT_SET_NO":999,"REV_AT_EPOCH":286,"BSTAR":0.00049264,"MEAN_MOTION_DOT":0.00097461,"MEAN_MOTION_DDOT":0},{"OBJECT_NAME":"STARLINK-36730","OBJECT_ID":"2026-034AA","EPOCH":"2026-03-03T12:00:00.998784","MEAN_MOTION":15.80843691,"ECCENTRICITY":0.0001032,"INCLINATION":53.1579,"RA_OF_ASC_NODE":242.1618,"ARG_OF_PERICENTER":70.3727,"MEAN_ANOMALY":186.6626,"EPHEMERIS_TYPE":0,"CLASSIFICATION_TYPE":"U","NORAD_CAT_ID":67874,"ELEMENT_SET_NO":999,"REV_AT_EPOCH":286,"BSTAR":0.00026201,"MEAN_MOTION_DOT":0.0005125,"MEAN_MOTION_DDOT":0},{"OBJECT_NAME":"STARLINK-36727","OBJECT_ID":"2026-034AB","EPOCH":"2026-03-03T12:00:00.998784","MEAN_MOTION":15.80818544,"ECCENTRICITY":7.25e-5,"INCLINATION":53.1568,"RA_OF_ASC_NODE":242.1526,"ARG_OF_PERICENTER":83.7978,"MEAN_ANOMALY":177.4953,"EPHEMERIS_TYPE":0,"CLASSIFICATION_TYPE":"U","NORAD_CAT_ID":67875,"ELEMENT_SET_NO":999,"REV_AT_EPOCH":286,"BSTAR":0.00057358,"MEAN_MOTION_DOT":0.00113721,"MEAN_MOTION_DDOT":0}]
